{
  "norad_id": 52534,
  "name": "STARLINK-3952",
  "history": [
    {
      "epoch": "2026-03-28T22:00:01.999584Z",
      "apogee_km": 306.33698571144214,
      "perigee_km": 305.16356246160285,
      "latitude_deg": -27.0791865734984,
      "longitude_deg": -147.20365405588612,
      "height_km": 314.38089888221725,
      "semi_major_axis_km": 6683.887274086522,
      "eccentricity": 8.778e-05,
      "inclination_deg": 53.2167,
      "raan_deg": 31.474,
      "arg_perigee_deg": 149.1541,
      "mean_anomaly_deg": 176.4866,
      "mean_motion_rev_day": 15.88762889
    },
    {
      "epoch": "2026-03-29T04:00:01.999584Z",
      "apogee_km": 304.6694347598277,
      "perigee_km": 303.6229892088304,
      "latitude_deg": -33.573486853764386,
      "longitude_deg": 114.05765505278733,
      "height_km": 315.22261179949453,
      "semi_major_axis_km": 6682.283211984329,
      "eccentricity": 7.83e-05,
      "inclination_deg": 53.2166,
      "raan_deg": 30.2092,
      "arg_perigee_deg": 137.4572,
      "mean_anomaly_deg": 179.182,
      "mean_motion_rev_day": 15.8933499
    },
    {
      "epoch": "2026-03-30T04:00:01.999584Z",
      "apogee_km": 297.9967683864679,
      "perigee_km": 297.08620584082564,
      "latitude_deg": -50.53641166625857,
      "longitude_deg": 73.00420156065661,
      "height_km": 315.4193701957614,
      "semi_major_axis_km": 6675.678487113646,
      "eccentricity": 6.82e-05,
      "inclination_deg": 53.2164,
      "raan_deg": 25.133,
      "arg_perigee_deg": 122.7203,
      "mean_anomaly_deg": 163.2156,
      "mean_motion_rev_day": 15.91694237
    },
    {
      "epoch": "2026-03-30T06:00:02.000160Z",
      "apogee_km": 297.6942896839828,
      "perigee_km": 296.46778512179026,
      "latitude_deg": 33.755381435474526,
      "longitude_deg": 136.84709533833643,
      "height_km": 299.2972963350496,
      "semi_major_axis_km": 6675.218037402886,
      "eccentricity": 9.187e-05,
      "inclination_deg": 53.2165,
      "raan_deg": 24.709,
      "arg_perigee_deg": 121.1265,
      "mean_anomaly_deg": 282.6537,
      "mean_motion_rev_day": 15.9185893
    }
  ]
}